end_orbit
end_mover
end_platform

platform GLOBALSTAR_59 GLOBALSTAR
edit mover
orbit
1 25944U 99058B   17204.75933166 -.00000058  00000-0  34722-3 0  9994
2 25944  52.0024  92.6818 0001202  40.0230   1.8256 11.99921505227653
end_orbit
end_mover
end_platform

platform GLOBALSTAR_56 GLOBALSTAR
edit mover
orbit
1 25945U 99058C   17204.89691819 -.00000129  00000-0 -48001-3 0  9991
2 25945  51.9947 168.2591 0001272 220.3081 167.2734 12.04714136814868
end_orbit
end_mover
end_platform

platform GLOBALSTAR_31 GLOBALSTAR
edit mover
orbit
1 25946U 99058D   17204.52194344 -.00000153  00000-0 -63801-3 0  9995
2 25946  51.9939 234.1072 0001356  99.1926 327.3675 12.15945982813667
end_orbit
end_mover
end_platform

platform GLOBALSTAR_39 GLOBALSTAR
edit mover
orbit
1 25961U 99062A   17204.71618447 -.00000106  00000-0 -11878-4 0  9999
2 25961  51.9856  55.9159 0003822  76.5649 283.5643 12.62188944815814
end_orbit
end_mover
end_platform

platform GLOBALSTAR_34 GLOBALSTAR
edit mover
orbit
1 25962U 99062B   17204.79943038 -.00000058  00000-0  36868-3 0  9995
2 25962  51.9887 311.1480 0013885 351.5952 178.0388 11.79380616797928
end_orbit
end_mover
end_platform

platform GLOBALSTAR_29 GLOBALSTAR
edit mover
orbit
1 25963U 99062C   17204.81802451 -.00000079  00000-0  85754-4 0  9994
2 25963  51.9826 342.9282 0002635 186.4491 262.9632 11.99828264822751
end_orbit
end_mover
end_platform

platform GLOBALSTAR_61 GLOBALSTAR
edit mover
orbit
1 25964U 99062D   17204.88215858 -.00000077  00000-0  52269-4 0  9994
2 25964  51.9799  96.7880 0005936 309.0973 175.3994 11.76723270781707
end_orbit
end_mover
end_platform

platform GLOBALSTAR_63 GLOBALSTAR
edit mover
orbit
1 26081U 00008A   17204.52850965 -.00000085  00000-0  10551-3 0  9998
2 26081  51.9952 238.4012 0001416 213.9736 308.7267 12.62265425813519
end_orbit
end_mover
end_platform

platform GLOBALSTAR_62 GLOBALSTAR
edit mover
orbit
1 26082U 00008B   17204.72885128 -.00000117  00000-0 -13791-3 0  9996
2 26082  51.9856 299.8430 0006970  71.4520  87.7288 12.43342968138004
end_orbit
end_mover
end_platform

platform GLOBALSTAR_60 GLOBALSTAR
edit mover
orbit
1 26083U 00008C   17204.95808446 -.00000119  00000-0 -27727-3 0  9996
2 26083  51.9993 211.1816 0002662 343.7068  29.3099 12.17545801801076
end_orbit
end_mover
end_platform

platform GLOBALSTAR_64 GLOBALSTAR
edit mover
orbit
1 26084U 00008D   17204.76211663 -.00000031  00000-0  74417-3 0  9995
2 26084  52.0031 283.0790 0001385 261.0661  99.0014 11.88468626824121
end_orbit
end_mover
end_platform

platform GLOBALSTAR_65 GLOBALSTAR
edit mover
orbit
1 31571U 07020A   17204.91932821 -.00000099  00000-0  28089-4 0  9995
2 31571  51.9924  10.8323 0000709 149.4871   7.9618 12.62358080469393
end_orbit
end_mover
end_platform

platform GLOBALSTAR_69 GLOBALSTAR
edit mover
orbit
1 31573U 07020C   17204.78852087 -.00000088  00000-0  86668-4 0  9992
2 31573  51.9966 327.1252 0000291  69.3901  85.6382 12.62265817470170
end_orbit
end_mover
end_platform

platform GLOBALSTAR_72 GLOBALSTAR
edit mover
orbit
1 31574U 07020D   17204.74366937 -.00000094  00000-0  53700-4 0  9991
2 31574  52.0089  60.7280 0001001  23.3126  88.3351 12.62276535468564
end_orbit
end_mover
end_platform

platform GLOBALSTAR_71 GLOBALSTAR
edit mover
orbit
1 31576U 07020F   17204.88358427 -.00000098  00000-0  34142-4 0  9996
2 31576  52.0083 329.9640 0002044 111.1251  39.7695 12.62265778131568
end_orbit
end_mover
end_platform

platform GLOBALSTAR_67 GLOBALSTAR
edit mover
orbit
1 32263U 07048A   17204.97245462 -.00000101  00000-0 -26542-4 0  9995
2 32263  51.9710 197.3426 0000757 309.2299  77.3328 12.40579209451599
end_orbit
end_mover
end_platform

platform GLOBALSTAR_70 GLOBALSTAR
edit mover
orbit
1 32264U 07048B   17204.73590994 -.00000081  00000-0  12482-3 0  9996
2 32264  51.9752 278.2771 0000924 149.8218   2.1629 12.62266553449454
end_orbit
end_mover
end_platform

platform GLOBALSTAR_66 GLOBALSTAR
edit mover
orbit
1 32265U 07048C   17204.78753573 -.00000116  00000-0 -68102-4 0  9997
2 32265  51.9671 141.0824 0000509 321.8629  57.4218 12.62273341451675
end_orbit
end_mover
end_platform

platform GLOBALSTAR_68 GLOBALSTAR
edit mover
orbit
1 32266U 07048D   17204.90366549 -.00000087  00000-0  96504-4 0  9998
2 32266  51.9890  96.1752 0000172 191.4483 297.2478 12.62688114453351
end_orbit
end_mover
end_platform

platform GLOBALSTAR_79 GLOBALSTAR
edit mover
orbit
1 37188U 10054A   17204.72810615 -.00000080  00000-0  13298-3 0  9996
2 37188  52.0040 283.6218 0000814 104.5778  37.1335 12.62268428312734
end_orbit
end_mover
end_platform

platform GLOBALSTAR_74 GLOBALSTAR
edit mover
orbit
1 37189U 10054B   17204.67888729 -.00000081  00000-0  12537-3 0  9998
2 37189  52.0017 283.5436 0000740  86.2354  71.5169 12.62266169312696
end_orbit
end_mover
end_platform

platform GLOBALSTAR_76 GLOBALSTAR
edit mover
orbit
1 37190U 10054C   17204.78360527 -.00000066  00000-0  20900-3 0  9999
2 37190  52.0031 283.1259 0000907  97.2398  56.7993 12.62263168312515
end_orbit
end_mover
end_platform

platform GLOBALSTAR_77 GLOBALSTAR
edit mover
orbit
1 37191U 10054D   17204.69278444 -.00000097  00000-0  36027-4 0  9998
2 37191  52.0057 239.4410 0000456 109.4127  51.4705 12.62268775313010
end_orbit
end_mover
end_platform

platform GLOBALSTAR_75 GLOBALSTAR
edit mover
orbit
1 37192U 10054E   17204.87527275 -.00000100  00000-0  22574-4 0  9995
2 37192  51.9964 326.7008 0001368  90.8245  60.1342 12.62266528311843
end_orbit
end_mover
end_platform

platform GLOBALSTAR_73 GLOBALSTAR
edit mover
orbit
1 37193U 10054F   17204.70979587 -.00000083  00000-0  11491-3 0  9990
2 37193  52.0040 238.8455 0000473 134.1137 344.7024 12.62267940313432
end_orbit
end_mover
end_platform

platform GLOBALSTAR_83 GLOBALSTAR
edit mover
orbit
1 37739U 11033A   17204.93951795 -.00000114  00000-0 -54783-4 0  9998
2 37739  51.9835 190.8150 0000442 288.5472  94.5691 12.62267101282691
end_orbit
end_mover
end_platform

platform GLOBALSTAR_88 GLOBALSTAR
edit mover
orbit
1 37740U 11033B   17204.85387028 -.00000096  00000-0  43556-4 0  9997
2 37740  51.9735  99.0058 0000867  22.1858  91.5132 12.62268212278304
end_orbit
end_mover
end_platform

platform GLOBALSTAR_91 GLOBALSTAR
edit mover
orbit
1 37741U 11033C   17204.95160399 -.00000089  00000-0  81039-4 0  9999
2 37741  52.0005  57.0913 0001039  44.8237  93.6732 12.62268280278983
end_orbit
end_mover
end_platform

platform GLOBALSTAR_85 GLOBALSTAR
edit mover
orbit
1 37742U 11033D   17204.94413775 -.00000105  00000-0 -72542-5 0  9998
2 37742  51.9880  10.7012 0000863  79.0604  84.9803 12.62268313279655
end_orbit
end_mover
end_platform

platform GLOBALSTAR_81 GLOBALSTAR
edit mover
orbit
1 37743U 11033E   17204.97077994 -.00000107  00000-0 -15224-4 0  9996
2 37743  51.9972  11.6274 0001150  65.6589  99.4260 12.62267305279682
end_orbit
end_mover
end_platform

platform GLOBALSTAR_89 GLOBALSTAR
edit mover
orbit
1 37744U 11033F   17204.77198645 -.00000102  00000-0  99876-5 0  9992
2 37744  51.9946 327.0011 0001068 117.2234  43.5395 12.62265736280403
end_orbit
end_mover
end_platform

platform GLOBALSTAR_84 GLOBALSTAR
edit mover
orbit
1 38040U 11080A   17204.91144299 -.00000114  00000-0 -58487-4 0  9992
2 38040  51.9984 192.3562 0000317 132.4060 242.0951 12.62265687258517
end_orbit
end_mover
end_platform

platform GLOBALSTAR_80 GLOBALSTAR
edit mover
orbit
1 38041U 11080B   17204.96717157 -.00000110  00000-0 -35551-4 0  9990
2 38041  52.0036 192.7780 0000384 112.3559 276.0797 12.62268417258506
end_orbit
end_mover
end_platform

platform GLOBALSTAR_82 GLOBALSTAR
edit mover
orbit
1 38042U 11080C   17204.90367792 -.00000119  00000-0 -84318-4 0  9995
2 38042  52.0066 148.1166 0000599 350.4049  50.2891 12.62268686259292
end_orbit
end_mover
end_platform

platform GLOBALSTAR_92 GLOBALSTAR
edit mover
orbit
1 38043U 11080D   17204.66529713 -.00000100  00000-0  19603-4 0  9996
2 38043  52.0071 239.0402 0000561 159.0619 357.4139 12.62268666257751
end_orbit
end_mover
end_platform

platform GLOBALSTAR_90 GLOBALSTAR
edit mover
orbit
1 38044U 11080E   17204.92799969 -.00000117  00000-0 -74253-4 0  9999
2 38044  51.9876 145.5700 0000565 348.7349  42.3597 12.62269014259248
end_orbit
end_mover
end_platform

platform GLOBALSTAR_86 GLOBALSTAR
edit mover
orbit
1 38045U 11080F   17204.87652493 -.00000125  00000-0 -12032-3 0  9999
2 38045  51.9888 146.0553 0001883  53.7921 343.0751 12.62266691259181
end_orbit
end_mover
end_platform

platform GLOBALSTAR_97 GLOBALSTAR
edit mover
orbit
1 39072U 13005A   17204.73651780 -.00000094  00000-0  52612-4 0  9995
2 39072  52.0054  58.0759 0001160  50.8916 309.2054 12.62268412206498
end_orbit
end_mover
end_platform

platform GLOBALSTAR_93 GLOBALSTAR
edit mover
orbit
1 39073U 13005B   17204.86852634 -.00000093  00000-0  60506-4 0  9991
2 39073  51.9818  55.6071 0001146  37.6567 322.4380 12.62263092206470
end_orbit
end_mover
end_platform

platform GLOBALSTAR_94 GLOBALSTAR
edit mover
orbit
1 39074U 13005C   17204.78920678 -.00000097  00000-0  36923-4 0  9997
2 39074  51.9973 327.3382 0001019  88.4365 271.6618 12.62266698207987
end_orbit
end_mover
end_platform

platform GLOBALSTAR_96 GLOBALSTAR
edit mover
orbit
1 39075U 13005D   17204.88201802 -.00000101  00000-0  15919-4 0  9998
2 39075  52.0087  13.3188 0001060  70.3569 289.7412 12.62267053207241
